{"fetched_at":"2026-07-07T07:58:10.717Z","source":"https://celestrak.org/NORAD/elements/gp.php?GROUP=oneweb&FORMAT=JSON","constellation":"oneweb","records":[{"OBJECT_NAME":"ONEWEB-0564","OBJECT_ID":"2023-029F","EPOCH":"2026-07-06T16:20:07.427328","CLASSIFICATION_TYPE":"U","MEAN_MOTION":13.20771907,"ECCENTRICITY":0.0001871,"INCLINATION":87.9182,"RA_OF_ASC_NODE":270.5679,"ARG_OF_PERICENTER":88.9297,"MEAN_ANOMALY":271.205,"EPHEMERIS_TYPE":0,"NORAD_CAT_ID":55801,"ELEMENT_SET_NO":999,"REV_AT_EPOCH":16372,"BSTAR":-0.00009902,"MEAN_MOTION_DOT":-2.7e-7,"MEAN_MOTION_DDOT":0},{"OBJECT_NAME":"ONEWEB-0638","OBJECT_ID":"2023-029G","EPOCH":"2026-07-06T17:26:51.200736","CLASSIFICATION_TYPE":"U","MEAN_MOTION":13.14555689,"ECCENTRICITY":0.0000616,"INCLINATION":87.8963,"RA_OF_ASC_NODE":285.8565,"ARG_OF_PERICENTER":91.4973,"MEAN_ANOMALY":268.6227,"EPHEMERIS_TYPE":0,"NORAD_CAT_ID":55802,"ELEMENT_SET_NO":999,"REV_AT_EPOCH":16196,"BSTAR":-0.028202,"MEAN_MOTION_DOT":-0.00010439,"MEAN_MOTION_DDOT":0},{"OBJECT_NAME":"ONEWEB-0639","OBJECT_ID":"2023-029H","EPOCH":"2026-07-06T08:45:52.197408","CLASSIFICATION_TYPE":"U","MEAN_MOTION":13.19725457,"ECCENTRICITY":0.0002238,"INCLINATION":87.9186,"RA_OF_ASC_NODE":301.1563,"ARG_OF_PERICENTER":126.0602,"MEAN_ANOMALY":234.0738,"EPHEMERIS_TYPE":0,"NORAD_CAT_ID":55803,"ELEMENT_SET_NO":999,"REV_AT_EPOCH":16143,"BSTAR":-0.00011065035,"MEAN_MOTION_DOT":-3.1e-7,"MEAN_MOTION_DDOT":0},{"OBJECT_NAME":"ONEWEB-0640","OBJECT_ID":"2023-029J","EPOCH":"2026-07-06T15:50:57.225120","CLASSIFICATION_TYPE":"U","MEAN_MOTION":13.14501348,"ECCENTRICITY":0.0001361,"INCLINATION":87.8963,"RA_OF_ASC_NODE":285.8607,"ARG_OF_PERICENTER":110.6783,"MEAN_ANOMALY":249.4493,"EPHEMERIS_TYPE":0,"NORAD_CAT_ID":55804,"ELEMENT_SET_NO":999,"REV_AT_EPOCH":16197,"BSTAR":0.000023648,"MEAN_MOTION_DOT":2.2e-7,"MEAN_MOTION_DDOT":0},{"OBJECT_NAME":"ONEWEB-0641","OBJECT_ID":"2023-029K","EPOCH":"2026-07-06T08:39:03.235104","CLASSIFICATION_TYPE":"U","MEAN_MOTION":13.19726074,"ECCENTRICITY":0.00020067,"INCLINATION":87.9192,"RA_OF_ASC_NODE":301.1479,"ARG_OF_PERICENTER":105.4715,"MEAN_ANOMALY":254.6639,"EPHEMERIS_TYPE":0,"NORAD_CAT_ID":55805,"ELEMENT_SET_NO":999,"REV_AT_EPOCH":16144,"BSTAR":0.00017047994,"MEAN_MOTION_DOT":8.1e-7,"MEAN_MOTION_DDOT":0},{"OBJECT_NAME":"ONEWEB-0642","OBJECT_ID":"2023-029L","EPOCH":"2026-07-06T08:32:14.869824","CLASSIFICATION_TYPE":"U","MEAN_MOTION":13.19725903,"ECCENTRICITY":0.00024219,"INCLINATION":87.9186,"RA_OF_ASC_NODE":301.1595,"ARG_OF_PERICENTER":120.1179,"MEAN_ANOMALY":240.0194,"EPHEMERIS_TYPE":0,"NORAD_CAT_ID":55806,"ELEMENT_SET_NO":999,"REV_AT_EPOCH":16143,"BSTAR":0.00022237183,"MEAN_MOTION_DOT":0.00000102,"MEAN_MOTION_DDOT":0},{"OBJECT_NAME":"ONEWEB-0643","OBJECT_ID":"2023-029M","EPOCH":"2026-07-06T16:57:10.863072","CLASSIFICATION_TYPE":"U","MEAN_MOTION":13.14502396,"ECCENTRICITY":0.00025,"INCLINATION":87.896,"RA_OF_ASC_NODE":285.8389,"ARG_OF_PERICENTER":112.5225,"MEAN_ANOMALY":247.6169,"EPHEMERIS_TYPE":0,"NORAD_CAT_ID":55807,"ELEMENT_SET_NO":999,"REV_AT_EPOCH":16195,"BSTAR":0.00010153,"MEAN_MOTION_DOT":5e-7,"MEAN_MOTION_DDOT":0},{"OBJECT_NAME":"ONEWEB-0644","OBJECT_ID":"2023-029N","EPOCH":"2026-07-06T17:31:18.270912","CLASSIFICATION_TYPE":"U","MEAN_MOTION":13.19725567,"ECCENTRICITY":0.0002167,"INCLINATION":87.9183,"RA_OF_ASC_NODE":301.086,"ARG_OF_PERICENTER":109.4035,"MEAN_ANOMALY":250.7332,"EPHEMERIS_TYPE":0,"NORAD_CAT_ID":55808,"ELEMENT_SET_NO":999,"REV_AT_EPOCH":16148,"BSTAR":0.00011323,"MEAN_MOTION_DOT":5.8e-7,"MEAN_MOTION_DDOT":0},{"OBJECT_NAME":"ONEWEB-0645","OBJECT_ID":"2023-029P","EPOCH":"2026-07-06T07:08:05.212320","CLASSIFICATION_TYPE":"U","MEAN_MOTION":13.19725484,"ECCENTRICITY":0.00017556,"INCLINATION":87.9183,"RA_OF_ASC_NODE":301.1689,"ARG_OF_PERICENTER":113.7594,"MEAN_ANOMALY":246.3723,"EPHEMERIS_TYPE":0,"NORAD_CAT_ID":55809,"ELEMENT_SET_NO":999,"REV_AT_EPOCH":16142,"BSTAR":0.000051513005,"MEAN_MOTION_DOT":3.4e-7,"MEAN_MOTION_DDOT":0},{"OBJECT_NAME":"ONEWEB-0646","OBJECT_ID":"2023-029Q","EPOCH":"2026-07-06T20:17:20.095008","CLASSIFICATION_TYPE":"U","MEAN_MOTION":13.19726434,"ECCENTRICITY":0.0002137,"INCLINATION":87.9184,"RA_OF_ASC_NODE":301.0601,"ARG_OF_PERICENTER":107.7174,"MEAN_ANOMALY":252.4192,"EPHEMERIS_TYPE":0,"NORAD_CAT_ID":55810,"ELEMENT_SET_NO":999,"REV_AT_EPOCH":16148,"BSTAR":-0.000028827,"MEAN_MOTION_DOT":1e-8,"MEAN_MOTION_DDOT":0},{"OBJECT_NAME":"ONEWEB-0648","OBJECT_ID":"2023-029R","EPOCH":"2026-07-06T16:11:30.473664","CLASSIFICATION_TYPE":"U","MEAN_MOTION":13.14502922,"ECCENTRICITY":0.0002001,"INCLINATION":87.8972,"RA_OF_ASC_NODE":285.8206,"ARG_OF_PERICENTER":126.9665,"MEAN_ANOMALY":233.1648,"EPHEMERIS_TYPE":0,"NORAD_CAT_ID":55811,"ELEMENT_SET_NO":999,"REV_AT_EPOCH":16195,"BSTAR":-0.00035917,"MEAN_MOTION_DOT":-0.0000012,"MEAN_MOTION_DDOT":0},{"OBJECT_NAME":"ONEWEB-0649","OBJECT_ID":"2023-029S","EPOCH":"2026-07-06T08:09:29.086272","CLASSIFICATION_TYPE":"U","MEAN_MOTION":13.19726352,"ECCENTRICITY":0.00019022,"INCLINATION":87.9184,"RA_OF_ASC_NODE":301.1586,"ARG_OF_PERICENTER":108.731,"MEAN_ANOMALY":251.4029,"EPHEMERIS_TYPE":0,"NORAD_CAT_ID":55812,"ELEMENT_SET_NO":999,"REV_AT_EPOCH":16145,"BSTAR":0.00016012038,"MEAN_MOTION_DOT":7.7e-7,"MEAN_MOTION_DDOT":0},{"OBJECT_NAME":"ONEWEB-0650","OBJECT_ID":"2023-029T","EPOCH":"2026-07-06T17:08:32.529696","CLASSIFICATION_TYPE":"U","MEAN_MOTION":13.19726261,"ECCENTRICITY":0.0002257,"INCLINATION":87.9183,"RA_OF_ASC_NODE":301.0866,"ARG_OF_PERICENTER":115.9534,"MEAN_ANOMALY":244.1832,"EPHEMERIS_TYPE":0,"NORAD_CAT_ID":55813,"ELEMENT_SET_NO":999,"REV_AT_EPOCH":16147,"BSTAR":0.00015012,"MEAN_MOTION_DOT":7.3e-7,"MEAN_MOTION_DDOT":0},{"OBJECT_NAME":"ONEWEB-0652","OBJECT_ID":"2023-029U","EPOCH":"2026-07-06T17:33:42.893280","CLASSIFICATION_TYPE":"U","MEAN_MOTION":13.14502328,"ECCENTRICITY":0.0002059,"INCLINATION":87.8972,"RA_OF_ASC_NODE":285.8161,"ARG_OF_PERICENTER":96.6732,"MEAN_ANOMALY":263.4632,"EPHEMERIS_TYPE":0,"NORAD_CAT_ID":55814,"ELEMENT_SET_NO":999,"REV_AT_EPOCH":16193,"BSTAR":0.00036043,"MEAN_MOTION_DOT":0.00000146,"MEAN_MOTION_DDOT":0},{"OBJECT_NAME":"ONEWEB-0653","OBJECT_ID":"2023-029V","EPOCH":"2026-07-06T17:10:52.144320","CLASSIFICATION_TYPE":"U","MEAN_MOTION":13.14501908,"ECCENTRICITY":0.0001933,"INCLINATION":87.897,"RA_OF_ASC_NODE":285.8172,"ARG_OF_PERICENTER":100.1767,"MEAN_ANOMALY":259.958,"EPHEMERIS_TYPE":0,"NORAD_CAT_ID":55815,"ELEMENT_SET_NO":999,"REV_AT_EPOCH":16196,"BSTAR":0.00041374,"MEAN_MOTION_DOT":0.00000166,"MEAN_MOTION_DDOT":0},{"OBJECT_NAME":"ONEWEB-0654","OBJECT_ID":"2023-029W","EPOCH":"2026-07-06T17:04:00.996096","CLASSIFICATION_TYPE":"U","MEAN_MOTION":13.14501749,"ECCENTRICITY":0.000192,"INCLINATION":87.8971,"RA_OF_ASC_NODE":285.8144,"ARG_OF_PERICENTER":89.396,"MEAN_ANOMALY":270.7389,"EPHEMERIS_TYPE":0,"NORAD_CAT_ID":55816,"ELEMENT_SET_NO":999,"REV_AT_EPOCH":16198,"BSTAR":0.00038171,"MEAN_MOTION_DOT":0.00000154,"MEAN_MOTION_DDOT":0}]}
