ONEWEB-0564             
1 55801U 23029F   26187.68064152 -.00000027  00000+0 -99020-4 0  9995
2 55801  87.9182 270.5679 0001871  88.9297 271.2050 13.20771907163725
ONEWEB-0638             
1 55802U 23029G   26187.72698149 -.00010439  00000+0 -28202-1 0  9999
2 55802  87.8963 285.8565 0000616  91.4973 268.6227 13.14555689161961
ONEWEB-0639             
1 55803U 23029H   26187.36518747 -.00000031  00000+0 -11065-3 0  9993
2 55803  87.9186 301.1563 0002238 126.0602 234.0738 13.19725457161439
ONEWEB-0640             
1 55804U 23029J   26187.66038455  .00000022  00000+0  23648-4 0  9999
2 55804  87.8963 285.8607 0001361 110.6783 249.4493 13.14501348161977
ONEWEB-0641             
1 55805U 23029K   26187.36045411  .00000081  00000+0  17048-3 0  9998
2 55805  87.9192 301.1479 0002006 105.4715 254.6639 13.19726074161448
ONEWEB-0642             
1 55806U 23029L   26187.35572766  .00000102  00000+0  22237-3 0  9996
2 55806  87.9186 301.1595 0002421 120.1179 240.0194 13.19725903161434
ONEWEB-0643             
1 55807U 23029M   26187.70637573  .00000050  00000+0  10153-3 0  9990
2 55807  87.8960 285.8389 0002500 112.5225 247.6169 13.14502396161954
ONEWEB-0644             
1 55808U 23029N   26187.73007258  .00000058  00000+0  11323-3 0  9993
2 55808  87.9183 301.0860 0002167 109.4035 250.7332 13.19725567161488
ONEWEB-0645             
1 55809U 23029P   26187.29728255  .00000034  00000+0  51513-4 0  9992
2 55809  87.9183 301.1689 0001755 113.7594 246.3723 13.19725484161426
ONEWEB-0646             
1 55810U 23029Q   26187.84537147  .00000001  00000+0 -28827-4 0  9990
2 55810  87.9184 301.0601 0002137 107.7174 252.4192 13.19726434161484
ONEWEB-0648             
1 55811U 23029R   26187.67465826 -.00000120  00000+0 -35917-3 0  9996
2 55811  87.8972 285.8206 0002001 126.9665 233.1648 13.14502922161950
ONEWEB-0649             
1 55812U 23029S   26187.33991998  .00000077  00000+0  16012-3 0  9998
2 55812  87.9184 301.1586 0001902 108.7310 251.4029 13.19726352161455
ONEWEB-0650             
1 55813U 23029T   26187.71426539  .00000073  00000+0  15012-3 0  9990
2 55813  87.9183 301.0866 0002257 115.9534 244.1832 13.19726261161479
ONEWEB-0652             
1 55814U 23029U   26187.73174645  .00000146  00000+0  36043-3 0  9999
2 55814  87.8972 285.8161 0002059  96.6732 263.4632 13.14502328161931
ONEWEB-0653             
1 55815U 23029V   26187.71588130  .00000166  00000+0  41374-3 0  9991
2 55815  87.8970 285.8172 0001933 100.1767 259.9580 13.14501908161969
ONEWEB-0654             
1 55816U 23029W   26187.71112264  .00000154  00000+0  38171-3 0  9991
2 55816  87.8971 285.8144 0001920  89.3960 270.7389 13.14501749161982
